{
  "type": "FeatureCollection",
  "features": [
    {
      "type": "Feature",
      "properties": {
        "norad_id": 66805,
        "name": "STARLINK-36049",
        "group": "last-30-days",
        "lat": -7.887468210187233,
        "lon": 61.8744939062367,
        "alt_km": 335.72584769817786,
        "timestamp": "2025-12-15T19:00:44.078147+00:00",
        "meta_object_name": "STARLINK-36049",
        "meta_object_id": "2025-278Q",
        "meta_epoch": "2025-12-14T20:00:06.000192",
        "meta_mean_motion": 15.81195443,
        "meta_eccentricity": 0.0001521,
        "meta_inclination": 42.9969,
        "meta_ra_of_asc_node": 239.1824,
        "meta_arg_of_pericenter": 277.7314,
        "meta_mean_anomaly": 214.3824,
        "meta_ephemeris_type": 0,
        "meta_classification_type": "U",
        "meta_norad_cat_id": 66805,
        "meta_element_set_no": 999,
        "meta_rev_at_epoch": 329,
        "meta_bstar": -0.0076270776,
        "meta_mean_motion_dot": -0.01378338,
        "meta_mean_motion_ddot": 0,
        "tle_line1": "1 66805U 25278Q   25348.83340278 -.01378338  00000+0 -76271-2 0  9995",
        "tle_line2": "2 66805  42.9969 239.1824 0001521 277.7314 214.3824 15.81195443  3294"
      },
      "geometry": {
        "type": "Point",
        "coordinates": [
          61.8744939062367,
          -7.887468210187233
        ]
      }
    },
    {
      "type": "Feature",
      "properties": {
        "norad_id": 66806,
        "name": "STARLINK-36069",
        "group": "last-30-days",
        "lat": -6.377166360854233,
        "lon": 60.21877775739073,
        "alt_km": 335.387564826563,
        "timestamp": "2025-12-15T19:00:44.078157+00:00",
        "meta_object_name": "STARLINK-36069",
        "meta_object_id": "2025-278R",
        "meta_epoch": "2025-12-14T20:00:06.000192",
        "meta_mean_motion": 15.81234627,
        "meta_eccentricity": 0.00014651,
        "meta_inclination": 42.9971,
        "meta_ra_of_asc_node": 239.1887,
        "meta_arg_of_pericenter": 275.9925,
        "meta_mean_anomaly": 213.7171,
        "meta_ephemeris_type": 0,
        "meta_classification_type": "U",
        "meta_norad_cat_id": 66806,
        "meta_element_set_no": 999,
        "meta_rev_at_epoch": 308,
        "meta_bstar": -0.0075623381,
        "meta_mean_motion_dot": -0.01370105,
        "meta_mean_motion_ddot": 0,
        "tle_line1": "1 66806U 25278R   25348.83340278 -.01370105  00000+0 -75623-2 0  9990",
        "tle_line2": "2 66806  42.9971 239.1887 0001465 275.9925 213.7171 15.81234627  3085"
      },
      "geometry": {
        "type": "Point",
        "coordinates": [
          60.21877775739073,
          -6.377166360854233
        ]
      }
    },
    {
      "type": "Feature",
      "properties": {
        "norad_id": 66807,
        "name": "STARLINK-36000",
        "group": "last-30-days",
        "lat": -10.768913206576812,
        "lon": 65.09178596489589,
        "alt_km": 335.99703637654966,
        "timestamp": "2025-12-15T19:00:44.078167+00:00",
        "meta_object_name": "STARLINK-36000",
        "meta_object_id": "2025-278S",
        "meta_epoch": "2025-12-14T20:00:06.000192",
        "meta_mean_motion": 15.81143418,
        "meta_eccentricity": 0.00015652,
        "meta_inclination": 42.997,
        "meta_ra_of_asc_node": 239.1713,
        "meta_arg_of_pericenter": 272.7353,
        "meta_mean_anomaly": 223.9104,
        "meta_ephemeris_type": 0,
        "meta_classification_type": "U",
        "meta_norad_cat_id": 66807,
        "meta_element_set_no": 999,
        "meta_rev_at_epoch": 335,
        "meta_bstar": -0.0077353003,
        "meta_mean_motion_dot": -0.01392751,
        "meta_mean_motion_ddot": 0,
        "tle_line1": "1 66807U 25278S   25348.83340278 -.01392751  00000+0 -77353-2 0  9994",
        "tle_line2": "2 66807  42.9970 239.1713 0001565 272.7353 223.9104 15.81143418  3350"
      },
      "geometry": {
        "type": "Point",
        "coordinates": [
          65.09178596489589,
          -10.768913206576812
        ]
      }
    },
    {
      "type": "Feature",
      "properties": {
        "norad_id": 66808,
        "name": "STARLINK-36071",
        "group": "last-30-days",
        "lat": -12.170434414123749,
        "lon": 66.69097121126043,
        "alt_km": 336.22686219456955,
        "timestamp": "2025-12-15T19:00:44.078179+00:00",
        "meta_object_name": "STARLINK-36071",
        "meta_object_id": "2025-278T",
        "meta_epoch": "2025-12-14T20:00:06.000192",
        "meta_mean_motion": 15.81124157,
        "meta_eccentricity": 0.00014993,
        "meta_inclination": 42.9971,
        "meta_ra_of_asc_node": 239.1655,
        "meta_arg_of_pericenter": 274.1752,
        "meta_mean_anomaly": 224.6622,
        "meta_ephemeris_type": 0,
        "meta_classification_type": "U",
        "meta_norad_cat_id": 66808,
        "meta_element_set_no": 999,
        "meta_rev_at_epoch": 329,
        "meta_bstar": -0.0077723255,
        "meta_mean_motion_dot": -0.01397519,
        "meta_mean_motion_ddot": 0,
        "tle_line1": "1 66808U 25278T   25348.83340278 -.01397519  00000+0 -77723-2 0  9993",
        "tle_line2": "2 66808  42.9971 239.1655 0001499 274.1752 224.6622 15.81124157  3297"
      },
      "geometry": {
        "type": "Point",
        "coordinates": [
          66.69097121126043,
          -12.170434414123749
        ]
      }
    },
    {
      "type": "Feature",
      "properties": {
        "norad_id": 66809,
        "name": "STARLINK-35979",
        "group": "last-30-days",
        "lat": -16.560205876932553,
        "lon": 71.90164490656565,
        "alt_km": 336.8720293605202,
        "timestamp": "2025-12-15T19:00:44.078196+00:00",
        "meta_object_name": "STARLINK-35979",
        "meta_object_id": "2025-278U",
        "meta_epoch": "2025-12-14T20:00:06.000192",
        "meta_mean_motion": 15.80996249,
        "meta_eccentricity": 0.00014687,
        "meta_inclination": 42.9969,
        "meta_ra_of_asc_node": 239.1472,
        "meta_arg_of_pericenter": 270.7568,
        "meta_mean_anomaly": 235.305,
        "meta_ephemeris_type": 0,
        "meta_classification_type": "U",
        "meta_norad_cat_id": 66809,
        "meta_element_set_no": 999,
        "meta_rev_at_epoch": 329,
        "meta_bstar": -0.007947668,
        "meta_mean_motion_dot": -0.01417924,
        "meta_mean_motion_ddot": 0,
        "tle_line1": "1 66809U 25278U   25348.83340278 -.01417924  00000+0 -79477-2 0  9995",
        "tle_line2": "2 66809  42.9969 239.1472 0001468 270.7568 235.3050 15.80996249  3297"
      },
      "geometry": {
        "type": "Point",
        "coordinates": [
          71.90164490656565,
          -16.560205876932553
        ]
      }
    },
    {
      "type": "Feature",
      "properties": {
        "norad_id": 66810,
        "name": "STARLINK-36046",
        "group": "last-30-days",
        "lat": -13.662501020597075,
        "lon": 68.42476883869497,
        "alt_km": 336.4516072908127,
        "timestamp": "2025-12-15T19:00:44.078210+00:00",
        "meta_object_name": "STARLINK-36046",
        "meta_object_id": "2025-278V",
        "meta_epoch": "2025-12-14T20:00:06.000192",
        "meta_mean_motion": 15.81077497,
        "meta_eccentricity": 0.00015149,
        "meta_inclination": 42.9973,
        "meta_ra_of_asc_node": 239.1596,
        "meta_arg_of_pericenter": 273.0348,
        "meta_mean_anomaly": 228.2469,
        "meta_ephemeris_type": 0,
        "meta_classification_type": "U",
        "meta_norad_cat_id": 66810,
        "meta_element_set_no": 999,
        "meta_rev_at_epoch": 306,
        "meta_bstar": -0.0078273916,
        "meta_mean_motion_dot": -0.01403602,
        "meta_mean_motion_ddot": 0,
        "tle_line1": "1 66810U 25278V   25348.83340278 -.01403602  00000+0 -78274-2 0  9999",
        "tle_line2": "2 66810  42.9973 239.1596 0001514 273.0348 228.2469 15.81077497  3061"
      },
      "geometry": {
        "type": "Point",
        "coordinates": [
          68.42476883869497,
          -13.662501020597075
        ]
      }
    },
    {
      "type": "Feature",
      "properties": {
        "norad_id": 66811,
        "name": "STARLINK-36045",
        "group": "last-30-days",
        "lat": -15.147071628839594,
        "lon": 70.18609666856503,
        "alt_km": 336.55474919229164,
        "timestamp": "2025-12-15T19:00:44.078220+00:00",
        "meta_object_name": "STARLINK-36045",
        "meta_object_id": "2025-278W",
        "meta_epoch": "2025-12-14T20:00:06.000192",
        "meta_mean_motion": 15.81028918,
        "meta_eccentricity": 0.0001522,
        "meta_inclination": 42.9973,
        "meta_ra_of_asc_node": 239.1533,
        "meta_arg_of_pericenter": 267.8226,
        "meta_mean_anomaly": 235.9234,
        "meta_ephemeris_type": 0,
        "meta_classification_type": "U",
        "meta_norad_cat_id": 66811,
        "meta_element_set_no": 999,
        "meta_rev_at_epoch": 329,
        "meta_bstar": -0.0078945064,
        "meta_mean_motion_dot": -0.01411445,
        "meta_mean_motion_ddot": 0,
        "tle_line1": "1 66811U 25278W   25348.83340278 -.01411445  00000+0 -78945-2 0  9999",
        "tle_line2": "2 66811  42.9973 239.1533 0001522 267.8226 235.9234 15.81028918  3292"
      },
      "geometry": {
        "type": "Point",
        "coordinates": [
          70.18609666856503,
          -15.147071628839594
        ]
      }
    }
  ]
}